[
  {
    "OBJECT_NAME": "CUBESX-HSE 3 (RS42S)",
    "OBJECT_ID": "2023-091N",
    "EPOCH": "2025-05-10T20:11:14.173728",
    "MEAN_MOTION": 15.20163715,
    "ECCENTRICITY": 0.0015036,
    "INCLINATION": 97.5635,
    "RA_OF_ASC_NODE": 188.4897,
    "ARG_OF_PERICENTER": 70.874,
    "MEAN_ANOMALY": 289.4121,
    "EPHEMERIS_TYPE": 0,
    "CLASSIFICATION_TYPE": "U",
    "NORAD_CAT_ID": 57178,
    "ELEMENT_SET_NO": 999,
    "REV_AT_EPOCH": 10309,
    "BSTAR": 0.00050366,
    "MEAN_MOTION_DOT": 0.00010869,
    "MEAN_MOTION_DDOT": 0
  },
  {
    "OBJECT_NAME": "MONITOR-3 (RS58S)",
    "OBJECT_ID": "2023-091Q",
    "EPOCH": "2025-05-10T20:04:38.072064",
    "MEAN_MOTION": 15.18579479,
    "ECCENTRICITY": 0.0015742,
    "INCLINATION": 97.563,
    "RA_OF_ASC_NODE": 187.8275,
    "ARG_OF_PERICENTER": 72.5759,
    "MEAN_ANOMALY": 287.7194,
    "EPHEMERIS_TYPE": 0,
    "CLASSIFICATION_TYPE": "U",
    "NORAD_CAT_ID": 57180,
    "ELEMENT_SET_NO": 999,
    "REV_AT_EPOCH": 10305,
    "BSTAR": 0.00047225,
    "MEAN_MOTION_DOT": 9.73e-05,
    "MEAN_MOTION_DDOT": 0
  },
  {
    "OBJECT_NAME": "MONITOR-4 (RS57S)",
    "OBJECT_ID": "2023-091S",
    "EPOCH": "2025-05-10T20:00:46.863936",
    "MEAN_MOTION": 15.18626628,
    "ECCENTRICITY": 0.0015788,
    "INCLINATION": 97.5624,
    "RA_OF_ASC_NODE": 187.7827,
    "ARG_OF_PERICENTER": 73.1867,
    "MEAN_ANOMALY": 287.1097,
    "EPHEMERIS_TYPE": 0,
    "CLASSIFICATION_TYPE": "U",
    "NORAD_CAT_ID": 57182,
    "ELEMENT_SET_NO": 999,
    "REV_AT_EPOCH": 10305,
    "BSTAR": 0.00048334,
    "MEAN_MOTION_DOT": 9.974e-05,
    "MEAN_MOTION_DDOT": 0
  },
  {
    "OBJECT_NAME": "MONITOR-2 (RS39S)",
    "OBJECT_ID": "2023-091U",
    "EPOCH": "2025-05-10T20:54:27.450720",
    "MEAN_MOTION": 15.14094258,
    "ECCENTRICITY": 0.0013997,
    "INCLINATION": 97.5633,
    "RA_OF_ASC_NODE": 186.7174,
    "ARG_OF_PERICENTER": 71.4339,
    "MEAN_ANOMALY": 288.8411,
    "EPHEMERIS_TYPE": 0,
    "CLASSIFICATION_TYPE": "U",
    "NORAD_CAT_ID": 57184,
    "ELEMENT_SET_NO": 999,
    "REV_AT_EPOCH": 10298,
    "BSTAR": 0.00027961,
    "MEAN_MOTION_DOT": 5.035e-05,
    "MEAN_MOTION_DDOT": 0
  },
  {
    "OBJECT_NAME": "SVYATOBOR 1 (RS60S)",
    "OBJECT_ID": "2023-091X",
    "EPOCH": "2025-05-10T20:50:31.482816",
    "MEAN_MOTION": 15.1848603,
    "ECCENTRICITY": 0.0012552,
    "INCLINATION": 97.5633,
    "RA_OF_ASC_NODE": 188.5696,
    "ARG_OF_PERICENTER": 65.5713,
    "MEAN_ANOMALY": 294.6829,
    "EPHEMERIS_TYPE": 0,
    "CLASSIFICATION_TYPE": "U",
    "NORAD_CAT_ID": 57187,
    "ELEMENT_SET_NO": 999,
    "REV_AT_EPOCH": 10310,
    "BSTAR": 0.00038046,
    "MEAN_MOTION_DOT": 7.793e-05,
    "MEAN_MOTION_DDOT": 0
  },
  {
    "OBJECT_NAME": "VIZARD-METEO (RS38S)",
    "OBJECT_ID": "2023-091Z",
    "EPOCH": "2025-05-10T20:06:26.635392",
    "MEAN_MOTION": 15.22850653,
    "ECCENTRICITY": 0.0010757,
    "INCLINATION": 97.5623,
    "RA_OF_ASC_NODE": 190.2242,
    "ARG_OF_PERICENTER": 61.0742,
    "MEAN_ANOMALY": 299.1571,
    "EPHEMERIS_TYPE": 0,
    "CLASSIFICATION_TYPE": "U",
    "NORAD_CAT_ID": 57189,
    "ELEMENT_SET_NO": 999,
    "REV_AT_EPOCH": 10321,
    "BSTAR": 0.0005172,
    "MEAN_MOTION_DOT": 0.00012064,
    "MEAN_MOTION_DDOT": 0
  },
  {
    "OBJECT_NAME": "NANOZOND 1 (RS49S)",
    "OBJECT_ID": "2023-091AA",
    "EPOCH": "2025-05-10T20:35:13.062912",
    "MEAN_MOTION": 15.34168096,
    "ECCENTRICITY": 0.0007315,
    "INCLINATION": 97.5576,
    "RA_OF_ASC_NODE": 193.6304,
    "ARG_OF_PERICENTER": 61.9784,
    "MEAN_ANOMALY": 298.2198,
    "EPHEMERIS_TYPE": 0,
    "CLASSIFICATION_TYPE": "U",
    "NORAD_CAT_ID": 57190,
    "ELEMENT_SET_NO": 999,
    "REV_AT_EPOCH": 10345,
    "BSTAR": 0.00077134,
    "MEAN_MOTION_DOT": 0.00025503,
    "MEAN_MOTION_DDOT": 0
  },
  {
    "OBJECT_NAME": "UTMN 2 (RS27S)",
    "OBJECT_ID": "2023-091AP",
    "EPOCH": "2025-05-10T20:17:20.938272",
    "MEAN_MOTION": 15.21181224,
    "ECCENTRICITY": 0.0011344,
    "INCLINATION": 97.5623,
    "RA_OF_ASC_NODE": 189.596,
    "ARG_OF_PERICENTER": 61.9293,
    "MEAN_ANOMALY": 298.3088,
    "EPHEMERIS_TYPE": 0,
    "CLASSIFICATION_TYPE": "U",
    "NORAD_CAT_ID": 57203,
    "ELEMENT_SET_NO": 999,
    "REV_AT_EPOCH": 10317,
    "BSTAR": 0.00047385,
    "MEAN_MOTION_DOT": 0.00010516,
    "MEAN_MOTION_DDOT": 0
  },
  {
    "OBJECT_NAME": "ARCCUBE 1 (RS25S)",
    "OBJECT_ID": "2023-091AR",
    "EPOCH": "2025-05-10T20:12:33.410304",
    "MEAN_MOTION": 15.42735461,
    "ECCENTRICITY": 0.0005675,
    "INCLINATION": 97.5494,
    "RA_OF_ASC_NODE": 195.3472,
    "ARG_OF_PERICENTER": 60.5703,
    "MEAN_ANOMALY": 299.611,
    "EPHEMERIS_TYPE": 0,
    "CLASSIFICATION_TYPE": "U",
    "NORAD_CAT_ID": 57205,
    "ELEMENT_SET_NO": 999,
    "REV_AT_EPOCH": 10358,
    "BSTAR": 0.001013,
    "MEAN_MOTION_DOT": 0.0004438,
    "MEAN_MOTION_DDOT": 0
  },
  {
    "OBJECT_NAME": "KUZGTU 1 (RS47S)",
    "OBJECT_ID": "2023-091AV",
    "EPOCH": "2025-05-10T20:32:29.406624",
    "MEAN_MOTION": 15.1958013,
    "ECCENTRICITY": 0.0015146,
    "INCLINATION": 97.5609,
    "RA_OF_ASC_NODE": 188.095,
    "ARG_OF_PERICENTER": 72.5485,
    "MEAN_ANOMALY": 287.7404,
    "EPHEMERIS_TYPE": 0,
    "CLASSIFICATION_TYPE": "U",
    "NORAD_CAT_ID": 57217,
    "ELEMENT_SET_NO": 999,
    "REV_AT_EPOCH": 10308,
    "BSTAR": 0.00046711,
    "MEAN_MOTION_DOT": 9.904e-05,
    "MEAN_MOTION_DDOT": 0
  }
]