CUBESX-HSE 3 (RS42S)    
1 57178U 23091N   25130.84113627  .00010869  00000+0  50366-3 0  9992
2 57178  97.5635 188.4897 0015036  70.8740 289.4121 15.20163715103092
MONITOR-3 (RS58S)       
1 57180U 23091Q   25130.83655176  .00009730  00000+0  47225-3 0  9999
2 57180  97.5630 187.8275 0015742  72.5759 287.7194 15.18579479103058
MONITOR-4 (RS57S)       
1 57182U 23091S   25130.83387574  .00009974  00000+0  48334-3 0  9997
2 57182  97.5624 187.7827 0015788  73.1867 287.1097 15.18626628103057
MONITOR-2 (RS39S)       
1 57184U 23091U   25130.87115105  .00005035  00000+0  27961-3 0  9999
2 57184  97.5633 186.7174 0013997  71.4339 288.8411 15.14094258102981
SVYATOBOR 1 (RS60S)     
1 57187U 23091X   25130.86841994  .00007793  00000+0  38046-3 0  9992
2 57187  97.5633 188.5696 0012552  65.5713 294.6829 15.18486030103109
VIZARD-METEO (RS38S)    
1 57189U 23091Z   25130.83780828  .00012064  00000+0  51720-3 0  9990
2 57189  97.5623 190.2242 0010757  61.0742 299.1571 15.22850653103212
NANOZOND 1 (RS49S)      
1 57190U 23091AA  25130.85779008  .00025503  00000+0  77134-3 0  9991
2 57190  97.5576 193.6304 0007315  61.9784 298.2198 15.34168096103455
UTMN 2 (RS27S)          
1 57203U 23091AP  25130.84538123  .00010516  00000+0  47385-3 0  9999
2 57203  97.5623 189.5960 0011344  61.9293 298.3088 15.21181224103179
ARCCUBE 1 (RS25S)       
1 57205U 23091AR  25130.84205336  .00044380  00000+0  10130-2 0  9991
2 57205  97.5494 195.3472 0005675  60.5703 299.6110 15.42735461103587
KUZGTU 1 (RS47S)        
1 57217U 23091AV  25130.85589591  .00009904  00000+0  46711-3 0  9991
2 57217  97.5609 188.0950 0015146  72.5485 287.7404 15.19580130103086
